43249,IRIDIUM 144,2018,100.4,860.0,+,86.4,Active,1,LEO,USA,USA,Commercial/Government,Communications,Falcon,1 43249U 18030A   24042.61272372  .00000015  00000+0 -16887-5 0  9997,2 43249  86.3952 288.3964 0001845  88.7295 271.4113 14.34217394307360,14.34217394,0.0001845,LEO
43250,IRIDIUM 149,2018,100.4,860.0,+,86.4,Active,1,LEO,USA,USA,Commercial/Government,Communications,Falcon,1 43250U 18030B   24042.61906492  .00000428  00000+0  14587-3 0  9996,2 43250  86.3953 288.3702 0002077  92.6855 267.4578 14.34215839307381,14.34215839,0.0002077,LEO
43251,IRIDIUM 157,2018,100.4,860.0,+,86.4,Active,1,LEO,USA,USA,Commercial/Government,Communications,Falcon,1 43251U 18030C   24042.21948302 -.00000014  00000+0 -12194-4 0  9995,2 43251  86.3954 288.5711 0002088  81.0490 279.0942 14.34217442307302,14.34217442,0.0002088,LEO
43252,IRIDIUM 140,2018,100.4,860.0,+,86.4,Active,1,LEO,USA,USA,Commercial/Government,Communications,Falcon,1 43252U 18030D   24042.23851034  .00000425  00000+0  14453-3 0  9996,2 43252  86.3955 288.5782 0001751  91.1454 268.9943 14.34217450307363,14.3421745,0.0001751,LEO
43253,IRIDIUM 145,2018,100.4,860.0,+,86.4,Active,1,LEO,USA,USA,Commercial/Government,Communications,Falcon,1 43253U 18030E   24042.22582218  .00000436  00000+0  14868-3 0  9993,2 43253  86.3954 288.5580 0002081  94.2596 265.8838 14.34220764307290,14.34220764,0.0002081,LEO
43254,IRIDIUM 146,2018,100.4,860.0,+,86.4,Active,1,LEO,USA,USA,Commercial/Government,Communications,Falcon,1 43254U 18030F   24042.62540947  .00000028  00000+0  29699-5 0  9998,2 43254  86.3953 288.4056 0001980  95.4891 264.6531 14.34217054307368,14.34217054,0.000198,LEO
43255,IRIDIUM 148,2018,100.4,860.0,+,86.4,Active,1,LEO,USA,USA,Commercial/Government,Communications,Falcon,1 43255U 18030G   24042.59369611  .00000250  00000+0  82210-4 0  9996,2 43255  86.3956 288.4491 0002363  86.2504 273.8962 14.34217708307399,14.34217708,0.0002363,LEO
43256,IRIDIUM 142,2018,100.4,860.0,+,86.4,Active,1,LEO,USA,USA,Commercial/Government,Communications,Falcon,1 43256U 18030H   24042.21313941  .00000464  00000+0  15875-3 0  9990,2 43256  86.3951 288.5281 0002180  94.0469 266.0976 14.34217386307309,14.34217386,0.000218,LEO
